IRIDIUM 63              
1 25286U 98021B   25328.17070892  .00000445  00000+0  14451-3 0  9997
2 25286  86.4001  15.0055 0002403  95.6185 264.5287 14.36714959446819
IRIDIUM 69              
1 25319U 98026A   25328.45465944  .00000634  00000+0  19041-3 0  9996
2 25319  86.3997  27.6672 0002306 159.1525 200.9769 14.41188245446143
IRIDIUM 71              
1 25320U 98026B   25328.44279334  .00000356  00000+0  10397-3 0  9999
2 25320  86.3995  22.3468 0000209  33.4605 326.6608 14.41302189446672
IRIDIUM 73              
1 25344U 98032C   25328.44713999  .00000689  00000+0  16562-3 0  9991
2 25344  86.4407 338.7655 0002519 106.8479 253.3003 14.51953199453812
IRIDIUM 82              
1 25467U 98051A   25328.19592845  .00044149  00000+0  86727-3 0  9994
2 25467  86.3627  30.4273 0066070  46.7102 313.9638 15.44703413448535
